{"type": "FeatureCollection", "features": [ {"type": "Feature", "properties": {"norad_id": 37834, "name": "INTELSAT 18 (IS-18)", "group": "intelsat", "lat": 0.010165662645878374, "lon": 128.99050977956568, "alt_km": 35791.22481004435, "timestamp": "2025-12-02T15:49:06.850821+00:00", "meta": {"OBJECT_NAME": "INTELSAT 18 (IS-18)", "OBJECT_ID": "2011-056A", "EPOCH": "2025-12-02T04:22:04.146816", "MEAN_MOTION": 1.00270867, "ECCENTRICITY": 0.00021108, "INCLINATION": 0.0194, "RA_OF_ASC_NODE": 329.3388, "ARG_OF_PERICENTER": 283.1071, "MEAN_ANOMALY": 64.3627, "EPHEMERIS_TYPE": 0, "CLASSIFICATION_TYPE": "U", "NORAD_CAT_ID": 37834, "ELEMENT_SET_NO": 999, "REV_AT_EPOCH": 5183, "BSTAR": 0, "MEAN_MOTION_DOT": 7.4e-07, "MEAN_MOTION_DDOT": 0}, "tle": {"line1": "1 37834U 11056A   25336.18199244  .00000074  00000+0  00000+0 0  9994", "line2": "2 37834   0.0194 329.3388 0002110 283.1071  64.3627  1.00270867 51839"}}, "geometry": {"type": "Point", "coordinates": [128.99050977956568, 0.010165662645878374]}}, {"type": "Feature", "properties": {"norad_id": 38098, "name": "INTELSAT 22 (IS-22)", "group": "intelsat", "lat": 0.014360665179221169, "lon": 21.136681677635714, "alt_km": 35789.8992694873, "timestamp": "2025-12-02T15:49:06.850834+00:00", "meta": {"OBJECT_NAME": "INTELSAT 22 (IS-22)", "OBJECT_ID": "2012-011A", "EPOCH": "2025-12-02T04:00:38.579616", "MEAN_MOTION": 1.00271784, "ECCENTRICITY": 0.00017215, "INCLINATION": 0.0023, "RA_OF_ASC_NODE": 359.2289, "ARG_OF_PERICENTER": 260.3702, "MEAN_ANOMALY": 303.9458, "EPHEMERIS_TYPE": 0, "CLASSIFICATION_TYPE": "U", "NORAD_CAT_ID": 38098, "ELEMENT_SET_NO": 999, "REV_AT_EPOCH": 521, "BSTAR": 0, "MEAN_MOTION_DOT": -3.8e-07, "MEAN_MOTION_DDOT": 0}, "tle": {"line1": "1 38098U 12011A   25336.16711319 -.00000038  00000+0  00000+0 0  9991", "line2": "2 38098   0.0023 359.2289 0001721 260.3702 303.9458  1.00271784  5214"}}, "geometry": {"type": "Point", "coordinates": [21.136681677635714, 0.014360665179221169]}}, {"type": "Feature", "properties": {"norad_id": 38356, "name": "INTELSAT 19 (IS-19)", "group": "intelsat", "lat": 0.012562210612487192, "lon": 115.00525048591237, "alt_km": 35797.487015764564, "timestamp": "2025-12-02T15:49:06.850846+00:00", "meta": {"OBJECT_NAME": "INTELSAT 19 (IS-19)", "OBJECT_ID": "2012-030A", "EPOCH": "2025-12-02T06:00:47.190816", "MEAN_MOTION": 1.00271601, "ECCENTRICITY": 0.00034198, "INCLINATION": 0.0106, "RA_OF_ASC_NODE": 319.7251, "ARG_OF_PERICENTER": 297.0364, "MEAN_ANOMALY": 70.8117, "EPHEMERIS_TYPE": 0, "CLASSIFICATION_TYPE": "U", "NORAD_CAT_ID": 38356, "ELEMENT_SET_NO": 999, "REV_AT_EPOCH": 4847, "BSTAR": 0, "MEAN_MOTION_DOT": -3.5e-07, "MEAN_MOTION_DDOT": 0}, "tle": {"line1": "1 38356U 12030A   25336.25054619 -.00000035  00000+0  00000+0 0  9999", "line2": "2 38356   0.0106 319.7251 0003419 297.0364  70.8117  1.00271601 48475"}}, "geometry": {"type": "Point", "coordinates": [115.00525048591237, 0.012562210612487192]}}, {"type": "Feature", "properties": {"norad_id": 38740, "name": "INTELSAT 20 (IS-20)", "group": "intelsat", "lat": 0.02960919679180851, "lon": 17.48211293100097, "alt_km": 35799.877619126106, "timestamp": "2025-12-02T15:49:06.850858+00:00", "meta": {"OBJECT_NAME": "INTELSAT 20 (IS-20)", "OBJECT_ID": "2012-043A", "EPOCH": "2025-12-02T00:24:39.918816", "MEAN_MOTION": 1.00268447, "ECCENTRICITY": 0.00030847, "INCLINATION": 0.0115, "RA_OF_ASC_NODE": 324.2147, "ARG_OF_PERICENTER": 225.9347, "MEAN_ANOMALY": 315.6275, "EPHEMERIS_TYPE": 0, "CLASSIFICATION_TYPE": "U", "NORAD_CAT_ID": 38740, "ELEMENT_SET_NO": 999, "REV_AT_EPOCH": 4877, "BSTAR": 0, "MEAN_MOTION_DOT": 0, "MEAN_MOTION_DDOT": 0}, "tle": {"line1": "1 38740U 12043A   25336.01712869  .00000000  00000+0  00000+0 0  9993", "line2": "2 38740   0.0115 324.2147 0003084 225.9347 315.6275  1.00268447 48778"}}, "geometry": {"type": "Point", "coordinates": [17.48211293100097, 0.02960919679180851]}}, {"type": "Feature", "properties": {"norad_id": 38749, "name": "INTELSAT 21 (IS-21)", "group": "intelsat", "lat": -0.03489453615860395, "lon": -108.97801695767917, "alt_km": 35776.78269220876, "timestamp": "2025-12-02T15:49:06.850870+00:00", "meta": {"OBJECT_NAME": "INTELSAT 21 (IS-21)", "OBJECT_ID": "2012-045A", "EPOCH": "2025-12-02T04:56:53.310912", "MEAN_MOTION": 1.00269285, "ECCENTRICITY": 0.00024063, "INCLINATION": 0.0159, "RA_OF_ASC_NODE": 312.5777, "ARG_OF_PERICENTER": 288.9047, "MEAN_ANOMALY": 206.0643, "EPHEMERIS_TYPE": 0, "CLASSIFICATION_TYPE": "U", "NORAD_CAT_ID": 38749, "ELEMENT_SET_NO": 999, "REV_AT_EPOCH": 4855, "BSTAR": 0, "MEAN_MOTION_DOT": -2.64e-06, "MEAN_MOTION_DDOT": 0}, "tle": {"line1": "1 38749U 12045A   25336.20617258 -.00000264  00000+0  00000+0 0  9994", "line2": "2 38749   0.0159 312.5777 0002406 288.9047 206.0643  1.00269285 48556"}}, "geometry": {"type": "Point", "coordinates": [-108.97801695767917, -0.03489453615860395]}}, {"type": "Feature", "properties": {"norad_id": 38867, "name": "INTELSAT 23 (IS-23)", "group": "intelsat", "lat": -0.020802269768399412, "lon": -103.97356897888224, "alt_km": 35781.010083493944, "timestamp": "2025-12-02T15:49:06.850882+00:00", "meta": {"OBJECT_NAME": "INTELSAT 23 (IS-23)", "OBJECT_ID": "2012-057A", "EPOCH": "2025-12-02T04:58:15.680352", "MEAN_MOTION": 1.00270501, "ECCENTRICITY": 0.00017846, "INCLINATION": 0.0444, "RA_OF_ASC_NODE": 123.8123, "ARG_OF_PERICENTER": 88.6225, "MEAN_ANOMALY": 240.4489, "EPHEMERIS_TYPE": 0, "CLASSIFICATION_TYPE": "U", "NORAD_CAT_ID": 38867, "ELEMENT_SET_NO": 999, "REV_AT_EPOCH": 4798, "BSTAR": 0, "MEAN_MOTION_DOT": -2.64e-06, "MEAN_MOTION_DDOT": 0}, "tle": {"line1": "1 38867U 12057A   25336.20712593 -.00000264  00000+0  00000+0 0  9996", "line2": "2 38867   0.0444 123.8123 0001784  88.6225 240.4489  1.00270501 47982"}}, "geometry": {"type": "Point", "coordinates": [-103.97356897888224, -0.020802269768399412]}}, {"type": "Feature", "properties": {"norad_id": 39360, "name": "FM-6", "group": "intelsat", "lat": 0.016177567157041328, "lon": -167.1314481500431, "alt_km": 35774.658494051306, "timestamp": "2025-12-02T15:49:06.850893+00:00", "meta": {"OBJECT_NAME": "FM-6", "OBJECT_ID": "2013-058A", "EPOCH": "2025-12-02T02:57:32.706144", "MEAN_MOTION": 1.00270916, "ECCENTRICITY": 0.00029448, "INCLINATION": 0.004, "RA_OF_ASC_NODE": 106.4225, "ARG_OF_PERICENTER": 66.6497, "MEAN_ANOMALY": 186.3941, "EPHEMERIS_TYPE": 0, "CLASSIFICATION_TYPE": "U", "NORAD_CAT_ID": 39360, "ELEMENT_SET_NO": 999, "REV_AT_EPOCH": 4409, "BSTAR": 0, "MEAN_MOTION_DOT": 4e-08, "MEAN_MOTION_DDOT": 0}, "tle": {"line1": "1 39360U 13058A   25336.12329521  .00000004  00000+0  00000+0 0  9994", "line2": "2 39360   0.0040 106.4225 0002944  66.6497 186.3941  1.00270916 44099"}}, "geometry": {"type": "Point", "coordinates": [-167.1314481500431, 0.016177567157041328]}}, {"type": "Feature", "properties": {"norad_id": 40271, "name": "INTELSAT 30 (IS-30)", "group": "intelsat", "lat": -0.025563574129454977, "lon": -146.00964793207945, "alt_km": 35789.07683209373, "timestamp": "2025-12-02T15:49:06.850905+00:00", "meta": {"OBJECT_NAME": "INTELSAT 30 (IS-30)", "OBJECT_ID": "2014-062A", "EPOCH": "2025-12-02T01:21:41.954976", "MEAN_MOTION": 1.00274289, "ECCENTRICITY": 0.00015346, "INCLINATION": 0.0117, "RA_OF_ASC_NODE": 354.2124, "ARG_OF_PERICENTER": 95.5309, "MEAN_ANOMALY": 266.8075, "EPHEMERIS_TYPE": 0, "CLASSIFICATION_TYPE": "U", "NORAD_CAT_ID": 40271, "ELEMENT_SET_NO": 999, "REV_AT_EPOCH": 480, "BSTAR": 0, "MEAN_MOTION_DOT": -1.3e-06, "MEAN_MOTION_DDOT": 0}, "tle": {"line1": "1 40271U 14062A   25336.05673559 -.00000130  00000+0  00000+0 0  9999", "line2": "2 40271   0.0117 354.2124 0001534  95.5309 266.8075  1.00274289  4809"}}, "geometry": {"type": "Point", "coordinates": [-146.00964793207945, -0.025563574129454977]}}, {"type": "Feature", "properties": {"norad_id": 40333, "name": "DIRECTV 14", "group": "intelsat", "lat": -0.03869063703724393, "lon": -150.22523539855237, "alt_km": 35787.52150659559, "timestamp": "2025-12-02T15:49:06.850917+00:00", "meta": {"OBJECT_NAME": "DIRECTV 14", "OBJECT_ID": "2014-078B", "EPOCH": "2025-12-02T04:45:09.435168", "MEAN_MOTION": 1.00265293, "ECCENTRICITY": 2.396e-05, "INCLINATION": 0.0174, "RA_OF_ASC_NODE": 323.2952, "ARG_OF_PERICENTER": 313.4959, "MEAN_ANOMALY": 126.5812, "EPHEMERIS_TYPE": 0, "CLASSIFICATION_TYPE": "U", "NORAD_CAT_ID": 40333, "ELEMENT_SET_NO": 999, "REV_AT_EPOCH": 4006, "BSTAR": 0, "MEAN_MOTION_DOT": -1.04e-06, "MEAN_MOTION_DDOT": 0}, "tle": {"line1": "1 40333U 14078B   25336.19802587 -.00000104  00000+0  00000+0 0  9996", "line2": "2 40333   0.0174 323.2952 0000239 313.4959 126.5812  1.00265293 40064"}}, "geometry": {"type": "Point", "coordinates": [-150.22523539855237, -0.03869063703724393]}}, {"type": "Feature", "properties": {"norad_id": 40663, "name": "DIRECTV 15", "group": "intelsat", "lat": -0.004429841379975083, "lon": -153.86436357845983, "alt_km": 35785.76747835655, "timestamp": "2025-12-02T15:49:06.850928+00:00", "meta": {"OBJECT_NAME": "DIRECTV 15", "OBJECT_ID": "2015-026A", "EPOCH": "2025-12-01T15:02:03.106176", "MEAN_MOTION": 1.00270344, "ECCENTRICITY": 2.258e-05, "INCLINATION": 0.0414, "RA_OF_ASC_NODE": 104.2594, "ARG_OF_PERICENTER": 141.9125, "MEAN_ANOMALY": 307.2149, "EPHEMERIS_TYPE": 0, "CLASSIFICATION_TYPE": "U", "NORAD_CAT_ID": 40663, "ELEMENT_SET_NO": 999, "REV_AT_EPOCH": 3848, "BSTAR": 0, "MEAN_MOTION_DOT": -8.1e-07, "MEAN_MOTION_DDOT": 0}, "tle": {"line1": "1 40663U 15026A   25335.62642484 -.00000081  00000+0  00000+0 0  9995", "line2": "2 40663   0.0414 104.2594 0000225 141.9125 307.2149  1.00270344 38487"}}, "geometry": {"type": "Point", "coordinates": [-153.86436357845983, -0.004429841379975083]}}]}